STARLINK-37008
1 68564U 26070Y   26111.00002315 -.00033722  00000+0 -16797-3 0  9997
2 68564  53.1582 172.1488 0000826 103.7668  51.9040 15.80874267  4183
STARLINK-37161
1 68565U 26070Z   26111.00002315 -.00037124  00000+0 -18532-3 0  9997
2 68565  53.1581 172.1398 0001023  85.1421  74.7985 15.80877110  4184
STARLINK-37212
1 68566U 26070AA  26111.00002315  .00007084  00000+0  39435-4 0  9994
2 68566  53.1580 172.1307 0001182 105.7270  58.4896 15.80855024  4181
STARLINK-37261
1 68567U 26070AB  26111.00002315 -.00025157  00000+0 -12429-3 0  9991
2 68567  53.1581 172.1216 0001180  78.5061  89.9791 15.80871268  4186
STARLINK-37283
1 68568U 26070AC  26110.62673543  .00344756  00000+0  16729-2 0  9999
2 68568  53.1576 174.4127 0000559  75.6578 284.4506 15.80982188  2882
STARLINK-37256
1 68569U 26070AD  26110.56427071  .00235642  00000+0  11606-2 0  9998
2 68569  53.1576 174.7342 0001754  58.4923 301.6271 15.80957195  2876
STARLINK-37228
1 68570U 26070AE  26110.56277231  .00324251  00000+0  15791-2 0  9995
2 68570  53.1579 174.7248 0003599  29.5199 330.6026 15.80957586  2873
MERIDIAN-M 21L
1 68571U 26071A   26104.39797982  .00000489  00000+0  80352-2 0  9990
2 68571  62.7790 237.3403 7234646 284.9939  10.8160  1.98596107   235
KUIPER-00131
1 68573U 26072A   26111.83335647 -.00218437  00000+0 -75194-2 0  9990
2 68573  51.8742  89.5846 0007147 162.5671  14.0696 15.30396770  3634
KUIPER-00189
1 68574U 26072B   26111.83335647 -.01043466  00000+0 -56172-1 0  9994
2 68574  51.8840  90.1160 0001407  33.2415 221.0490 15.17441325  3201
KUIPER-00192
1 68575U 26072C   26111.65658955  .00021794  00000+0  58722-3 0  9997
2 68575  51.8758  90.2922 0004879 152.5976 207.5269 15.37751554  2684
KUIPER-00193
1 68576U 26072D   26111.65513035  .00021294  00000+0  57330-3 0  9996
2 68576  51.8762  90.2823 0003230 138.7357 221.3875 15.37794470  2680
KUIPER-00194
1 68577U 26072E   26111.45624036  .00020509  00000+0  54869-3 0  9991
2 68577  51.8770  91.1974 0002727 129.5491 230.5737 15.38016004  2651
KUIPER-00229
1 68578U 26072F   26111.83335647  .00060239  00000+0  19721-2 0  9992
2 68578  51.8752  89.6211 0007371 167.1039  11.3422 15.31077036  3757
KUIPER-00230
1 68579U 26072G   26111.64656688  .00022404  00000+0  58881-3 0  9996
2 68579  51.8768  90.2215 0001686 110.4307 249.6861 15.38510314  2681
FREGAT R/B
1 68572U 26071B   26093.32132148 -.00001541  00000+0  35052-3 0  9997
2 68572  63.0589 237.9448 7313819 284.9724  10.3188  2.01041412    13
