[{"OBJECT_NAME":"STARLINK-37008","OBJECT_ID":"2026-070Y","EPOCH":"2026-04-21T00:00:02.000160","MEAN_MOTION":15.80874267,"ECCENTRICITY":8.263e-5,"INCLINATION":53.1582,"RA_OF_ASC_NODE":172.1488,"ARG_OF_PERICENTER":103.7668,"MEAN_ANOMALY":51.904,"EPHEMERIS_TYPE":0,"CLASSIFICATION_TYPE":"U","NORAD_CAT_ID":68564,"ELEMENT_SET_NO":999,"REV_AT_EPOCH":418,"BSTAR":-0.00016797218,"MEAN_MOTION_DOT":-0.00033722,"MEAN_MOTION_DDOT":0},{"OBJECT_NAME":"STARLINK-37161","OBJECT_ID":"2026-070Z","EPOCH":"2026-04-21T00:00:02.000160","MEAN_MOTION":15.8087711,"ECCENTRICITY":0.0001023,"INCLINATION":53.1581,"RA_OF_ASC_NODE":172.1398,"ARG_OF_PERICENTER":85.1421,"MEAN_ANOMALY":74.7985,"EPHEMERIS_TYPE":0,"CLASSIFICATION_TYPE":"U","NORAD_CAT_ID":68565,"ELEMENT_SET_NO":999,"REV_AT_EPOCH":418,"BSTAR":-0.00018531776,"MEAN_MOTION_DOT":-0.00037124,"MEAN_MOTION_DDOT":0},{"OBJECT_NAME":"STARLINK-37212","OBJECT_ID":"2026-070AA","EPOCH":"2026-04-21T00:00:02.000160","MEAN_MOTION":15.80855024,"ECCENTRICITY":0.00011822,"INCLINATION":53.158,"RA_OF_ASC_NODE":172.1307,"ARG_OF_PERICENTER":105.727,"MEAN_ANOMALY":58.4896,"EPHEMERIS_TYPE":0,"CLASSIFICATION_TYPE":"U","NORAD_CAT_ID":68566,"ELEMENT_SET_NO":999,"REV_AT_EPOCH":418,"BSTAR":3.9434926e-5,"MEAN_MOTION_DOT":7.084e-5,"MEAN_MOTION_DDOT":0},{"OBJECT_NAME":"STARLINK-37261","OBJECT_ID":"2026-070AB","EPOCH":"2026-04-21T00:00:02.000160","MEAN_MOTION":15.80871268,"ECCENTRICITY":0.00011806,"INCLINATION":53.1581,"RA_OF_ASC_NODE":172.1216,"ARG_OF_PERICENTER":78.5061,"MEAN_ANOMALY":89.9791,"EPHEMERIS_TYPE":0,"CLASSIFICATION_TYPE":"U","NORAD_CAT_ID":68567,"ELEMENT_SET_NO":999,"REV_AT_EPOCH":418,"BSTAR":-0.00012429077,"MEAN_MOTION_DOT":-0.00025157,"MEAN_MOTION_DDOT":0},{"OBJECT_NAME":"STARLINK-37283","OBJECT_ID":"2026-070AC","EPOCH":"2026-04-20T15:02:29.941152","MEAN_MOTION":15.80982188,"ECCENTRICITY":5.591e-5,"INCLINATION":53.1576,"RA_OF_ASC_NODE":174.4127,"ARG_OF_PERICENTER":75.6578,"MEAN_ANOMALY":284.4506,"EPHEMERIS_TYPE":0,"CLASSIFICATION_TYPE":"U","NORAD_CAT_ID":68568,"ELEMENT_SET_NO":999,"REV_AT_EPOCH":288,"BSTAR":0.0016729252,"MEAN_MOTION_DOT":0.00344756,"MEAN_MOTION_DDOT":0},{"OBJECT_NAME":"STARLINK-37256","OBJECT_ID":"2026-070AD","EPOCH":"2026-04-20T13:32:32.989344","MEAN_MOTION":15.80957195,"ECCENTRICITY":0.00017541,"INCLINATION":53.1576,"RA_OF_ASC_NODE":174.7342,"ARG_OF_PERICENTER":58.4923,"MEAN_ANOMALY":301.6271,"EPHEMERIS_TYPE":0,"CLASSIFICATION_TYPE":"U","NORAD_CAT_ID":68569,"ELEMENT_SET_NO":999,"REV_AT_EPOCH":287,"BSTAR":0.0011606121,"MEAN_MOTION_DOT":0.00235642,"MEAN_MOTION_DDOT":0},{"OBJECT_NAME":"STARLINK-37228","OBJECT_ID":"2026-070AE","EPOCH":"2026-04-20T13:30:23.527584","MEAN_MOTION":15.80957586,"ECCENTRICITY":0.00035998,"INCLINATION":53.1579,"RA_OF_ASC_NODE":174.7248,"ARG_OF_PERICENTER":29.5199,"MEAN_ANOMALY":330.6026,"EPHEMERIS_TYPE":0,"CLASSIFICATION_TYPE":"U","NORAD_CAT_ID":68570,"ELEMENT_SET_NO":999,"REV_AT_EPOCH":287,"BSTAR":0.0015790846,"MEAN_MOTION_DOT":0.00324251,"MEAN_MOTION_DDOT":0},{"OBJECT_NAME":"MERIDIAN-M 21L","OBJECT_ID":"2026-071A","EPOCH":"2026-04-14T09:33:05.456448","MEAN_MOTION":1.98596107,"ECCENTRICITY":0.72346467,"INCLINATION":62.779,"RA_OF_ASC_NODE":237.3403,"ARG_OF_PERICENTER":284.9939,"MEAN_ANOMALY":10.816,"EPHEMERIS_TYPE":0,"CLASSIFICATION_TYPE":"U","NORAD_CAT_ID":68571,"ELEMENT_SET_NO":999,"REV_AT_EPOCH":23,"BSTAR":0.0080351969,"MEAN_MOTION_DOT":4.89e-6,"MEAN_MOTION_DDOT":0},{"OBJECT_NAME":"FREGAT R/B","OBJECT_ID":"2026-071B","EPOCH":"2026-04-03T07:42:42.175872","MEAN_MOTION":2.01041412,"ECCENTRICITY":0.73138199,"INCLINATION":63.0589,"RA_OF_ASC_NODE":237.9448,"ARG_OF_PERICENTER":284.9724,"MEAN_ANOMALY":10.3188,"EPHEMERIS_TYPE":0,"CLASSIFICATION_TYPE":"U","NORAD_CAT_ID":68572,"ELEMENT_SET_NO":999,"REV_AT_EPOCH":1,"BSTAR":0.00035051942,"MEAN_MOTION_DOT":-1.541e-5,"MEAN_MOTION_DDOT":0},{"OBJECT_NAME":"KUIPER-00131","OBJECT_ID":"2026-072A","EPOCH":"2026-04-21T20:00:01.999008","MEAN_MOTION":15.3039677,"ECCENTRICITY":0.0007147,"INCLINATION":51.8742,"RA_OF_ASC_NODE":89.5846,"ARG_OF_PERICENTER":162.5671,"MEAN_ANOMALY":14.0696,"EPHEMERIS_TYPE":0,"CLASSIFICATION_TYPE":"U","NORAD_CAT_ID":68573,"ELEMENT_SET_NO":999,"REV_AT_EPOCH":363,"BSTAR":-0.0075194,"MEAN_MOTION_DOT":-0.00218437,"MEAN_MOTION_DDOT":0},{"OBJECT_NAME":"KUIPER-00189","OBJECT_ID":"2026-072B","EPOCH":"2026-04-21T20:00:01.999008","MEAN_MOTION":15.17441325,"ECCENTRICITY":0.0001407,"INCLINATION":51.884,"RA_OF_ASC_NODE":90.116,"ARG_OF_PERICENTER":33.2415,"MEAN_ANOMALY":221.049,"EPHEMERIS_TYPE":0,"CLASSIFICATION_TYPE":"U","NORAD_CAT_ID":68574,"ELEMENT_SET_NO":999,"REV_AT_EPOCH":320,"BSTAR":-0.056172,"MEAN_MOTION_DOT":-0.01043466,"MEAN_MOTION_DDOT":0},{"OBJECT_NAME":"KUIPER-00192","OBJECT_ID":"2026-072C","EPOCH":"2026-04-21T15:45:29.337120","MEAN_MOTION":15.37751554,"ECCENTRICITY":0.0004879,"INCLINATION":51.8758,"RA_OF_ASC_NODE":90.2922,"ARG_OF_PERICENTER":152.5976,"MEAN_ANOMALY":207.5269,"EPHEMERIS_TYPE":0,"CLASSIFICATION_TYPE":"U","NORAD_CAT_ID":68575,"ELEMENT_SET_NO":999,"REV_AT_EPOCH":268,"BSTAR":0.00058722,"MEAN_MOTION_DOT":0.00021794,"MEAN_MOTION_DDOT":0},{"OBJECT_NAME":"KUIPER-00193","OBJECT_ID":"2026-072D","EPOCH":"2026-04-21T15:43:23.262240","MEAN_MOTION":15.3779447,"ECCENTRICITY":0.000323,"INCLINATION":51.8762,"RA_OF_ASC_NODE":90.2823,"ARG_OF_PERICENTER":138.7357,"MEAN_ANOMALY":221.3875,"EPHEMERIS_TYPE":0,"CLASSIFICATION_TYPE":"U","NORAD_CAT_ID":68576,"ELEMENT_SET_NO":999,"REV_AT_EPOCH":268,"BSTAR":0.0005733,"MEAN_MOTION_DOT":0.00021294,"MEAN_MOTION_DDOT":0},{"OBJECT_NAME":"KUIPER-00194","OBJECT_ID":"2026-072E","EPOCH":"2026-04-21T10:56:59.167104","MEAN_MOTION":15.38016004,"ECCENTRICITY":0.0002727,"INCLINATION":51.877,"RA_OF_ASC_NODE":91.1974,"ARG_OF_PERICENTER":129.5491,"MEAN_ANOMALY":230.5737,"EPHEMERIS_TYPE":0,"CLASSIFICATION_TYPE":"U","NORAD_CAT_ID":68577,"ELEMENT_SET_NO":999,"REV_AT_EPOCH":265,"BSTAR":0.00054869,"MEAN_MOTION_DOT":0.00020509,"MEAN_MOTION_DDOT":0},{"OBJECT_NAME":"KUIPER-00229","OBJECT_ID":"2026-072F","EPOCH":"2026-04-21T20:00:01.999008","MEAN_MOTION":15.31077036,"ECCENTRICITY":0.0007371,"INCLINATION":51.8752,"RA_OF_ASC_NODE":89.6211,"ARG_OF_PERICENTER":167.1039,"MEAN_ANOMALY":11.3422,"EPHEMERIS_TYPE":0,"CLASSIFICATION_TYPE":"U","NORAD_CAT_ID":68578,"ELEMENT_SET_NO":999,"REV_AT_EPOCH":375,"BSTAR":0.0019721,"MEAN_MOTION_DOT":0.00060239,"MEAN_MOTION_DDOT":0},{"OBJECT_NAME":"KUIPER-00230","OBJECT_ID":"2026-072G","EPOCH":"2026-04-21T15:31:03.378432","MEAN_MOTION":15.38510314,"ECCENTRICITY":0.0001686,"INCLINATION":51.8768,"RA_OF_ASC_NODE":90.2215,"ARG_OF_PERICENTER":110.4307,"MEAN_ANOMALY":249.6861,"EPHEMERIS_TYPE":0,"CLASSIFICATION_TYPE":"U","NORAD_CAT_ID":68579,"ELEMENT_SET_NO":999,"REV_AT_EPOCH":268,"BSTAR":0.00058881,"MEAN_MOTION_DOT":0.00022404,"MEAN_MOTION_DDOT":0}]
